start=new Date('2021-11-27T00:00:00.000Z').valueOf();
sats=[{"EPOCH":"2021-11-26T12:13:27.546240","CLASSIFICATION_TYPE":"U","MEAN_MOTION_DDOT":"0.0000000000000","COUNTRY_CODE":"US","BSTAR":"0.00012772000000","GP_ID":"190533032","MEAN_ANOMALY":"293.2641","LAUNCH_DATE":"2020-04-22","FILE":"3224737","RA_OF_ASC_NODE":"258.5086","MEAN_ELEMENT_THEORY":"SGP4","RCS_SIZE":"LARGE","SITE":"AFETR","TLE_LINE1":"1 45571U 20025AS  21330.50934660  .00001621  00000-0  12772-3 0  9995","DECAY_DATE":null,"REV_AT_EPOCH":"8915","OBJECT_ID":"2020-025AS","MEAN_MOTION":"15.06391057","TLE_LINE2":"2 45571  53.0547 258.5086 0001721  66.8529 293.2641 15.06391057 89156","OBJECT_NAME":"STARLINK-1261","INCLINATION":"53.0547","NORAD_CAT_ID":"45571","PERIAPSIS":"546.049","PERIOD":"95.593","ELEMENT_SET_NO":"999","TIME_SYSTEM":"UTC","APOAPSIS":"548.433","ARG_OF_PERICENTER":"66.8529","REF_FRAME":"TEME","OBJECT_TYPE":"PAYLOAD","MEAN_MOTION_DOT":"0.00001621","CENTER_NAME":"EARTH","ECCENTRICITY":"0.00017210","EPHEMERIS_TYPE":"0","SEMIMAJOR_AXIS":"6925.376"},{"DECAY_DATE":null,"REV_AT_EPOCH":"8980","OBJECT_ID":"2020-025AT","MEAN_MOTION":"15.06398225","TLE_LINE2":"2 45572  53.0551 257.0527 0002219  69.2570 290.8657 15.06398225 89808","OBJECT_NAME":"STARLINK-1320","LAUNCH_DATE":"2020-04-22","FILE":"3224952","RA_OF_ASC_NODE":"257.0527","MEAN_ELEMENT_THEORY":"SGP4","RCS_SIZE":"LARGE","TLE_LINE1":"1 45572U 20025AT  21330.83370183  .00000385  00000-0  44794-4 0  9992","SITE":"AFETR","GP_ID":"190557701","MEAN_ANOMALY":"290.8657","CLASSIFICATION_TYPE":"U","EPOCH":"2021-11-26T20:00:31.838112","MEAN_MOTION_DDOT":"0.0000000000000","COUNTRY_CODE":"US","BSTAR":"0.00004479400000","ECCENTRICITY":"0.00022190","EPHEMERIS_TYPE":"0","SEMIMAJOR_AXIS":"6925.354","OBJECT_TYPE":"PAYLOAD","MEAN_MOTION_DOT":"0.00000385","CENTER_NAME":"EARTH","ELEMENT_SET_NO":"999","TIME_SYSTEM":"UTC","APOAPSIS":"548.756","ARG_OF_PERICENTER":"69.2570","REF_FRAME":"TEME","INCLINATION":"53.0551","NORAD_CAT_ID":"45572","PERIAPSIS":"545.682","PERIOD":"95.592"},{"PERIOD":"95.592","PERIAPSIS":"545.805","NORAD_CAT_ID":"45573","INCLINATION":"53.0540","TIME_SYSTEM":"UTC","APOAPSIS":"548.587","ELEMENT_SET_NO":"999","REF_FRAME":"TEME","ARG_OF_PERICENTER":"63.8076","CENTER_NAME":"EARTH","MEAN_MOTION_DOT":"0.00001886","OBJECT_TYPE":"PAYLOAD","SEMIMAJOR_AXIS":"6925.331","EPHEMERIS_TYPE":"0","ECCENTRICITY":"0.00020090","MEAN_MOTION_DDOT":"0.0000000000000","BSTAR":"0.00014545000000","COUNTRY_CODE":"US","CLASSIFICATION_TYPE":"U","EPOCH":"2021-11-26T13:06:31.273920","GP_ID":"190527651","MEAN_ANOMALY":"296.3119","TLE_LINE1":"1 45573U 20025AU  21330.54619530  .00001886  00000-0  14545-3 0  9990","SITE":"AFETR","RA_OF_ASC_NODE":"258.3360","LAUNCH_DATE":"2020-04-22","FILE":"3224704","RCS_SIZE":"LARGE","MEAN_ELEMENT_THEORY":"SGP4","OBJECT_NAME":"STARLINK-1321","TLE_LINE2":"2 45573  53.0540 258.3360 0002009  63.8076 296.3119 15.06405690 89454","REV_AT_EPOCH":"8945","OBJECT_ID":"2020-025AU","DECAY_DATE":null,"MEAN_MOTION":"15.06405690"},{"GP_ID":"190527901","MEAN_ANOMALY":"292.5039","BSTAR":"0.00002705500000","COUNTRY_CODE":"US","MEAN_MOTION_DDOT":"0.0000000000000","CLASSIFICATION_TYPE":"U","EPOCH":"2021-11-26T12:08:08.174688","OBJECT_NAME":"STARLINK-1324","TLE_LINE2":"2 45574  53.0551 258.5211 0001677  67.6128 292.5039 15.06399073 89764","MEAN_MOTION":"15.06399073","REV_AT_EPOCH":"8976","OBJECT_ID":"2020-025AV","DECAY_DATE":null,"TLE_LINE1":"1 45574U 20025AV  21330.50565017  .00000121  00000-0  27055-4 0  9999","SITE":"AFETR","RCS_SIZE":"LARGE","MEAN_ELEMENT_THEORY":"SGP4","RA_OF_ASC_NODE":"258.5211","FILE":"3224704","LAUNCH_DATE":"2020-04-22","REF_FRAME":"TEME","ARG_OF_PERICENTER":"67.6128","APOAPSIS":"548.378","TIME_SYSTEM":"UTC","ELEMENT_SET_NO":"999","PERIAPSIS":"546.055","PERIOD":"95.592","NORAD_CAT_ID":"45574","INCLINATION":"53.0551","SEMIMAJOR_AXIS":"6925.351","EPHEMERIS_TYPE":"0","ECCENTRICITY":"0.00016770","CENTER_NAME":"EARTH","MEAN_MOTION_DOT":"0.00000121","OBJECT_TYPE":"PAYLOAD"},{"CENTER_NAME":"EARTH","OBJECT_TYPE":"PAYLOAD","MEAN_MOTION_DOT":"0.00004160","SEMIMAJOR_AXIS":"6918.541","ECCENTRICITY":"0.00018170","EPHEMERIS_TYPE":"0","PERIOD":"95.451","PERIAPSIS":"539.149","INCLINATION":"53.0007","NORAD_CAT_ID":"45575","ARG_OF_PERICENTER":"82.4743","REF_FRAME":"TEME","ELEMENT_SET_NO":"999","APOAPSIS":"541.664","TIME_SYSTEM":"UTC","TLE_LINE1":"1 45575U 20025AW  21330.88583590  .00004160  00000-0  28093-3 0  9996","SITE":"AFETR","MEAN_ELEMENT_THEORY":"SGP4","RCS_SIZE":"LARGE","LAUNCH_DATE":"2020-04-22","FILE":"3224952","RA_OF_ASC_NODE":"252.7528","TLE_LINE2":"2 45575  53.0007 252.7528 0001817  82.4743 277.6453 15.08623740 89859","OBJECT_NAME":"STARLINK-1326","MEAN_MOTION":"15.08623740","DECAY_DATE":null,"OBJECT_ID":"2020-025AW","REV_AT_EPOCH":"8985","COUNTRY_CODE":"US","BSTAR":"0.00028093000000","MEAN_MOTION_DDOT":"0.0000000000000","CLASSIFICATION_TYPE":"U","EPOCH":"2021-11-26T21:15:36.221760","GP_ID":"190556955","MEAN_ANOMALY":"277.6453"},{"MEAN_ANOMALY":"291.6002","GP_ID":"190558201","MEAN_MOTION_DDOT":"0.0000000000000","BSTAR":"0.00013440000000","COUNTRY_CODE":"US","CLASSIFICATION_TYPE":"U","EPOCH":"2021-11-26T19:07:27.706080","OBJECT_NAME":"STARLINK-1328","TLE_LINE2":"2 45576  53.0539 257.2066 0001895  68.5189 291.6002 15.06399195 89805","OBJECT_ID":"2020-025AX","REV_AT_EPOCH":"8980","DECAY_DATE":null,"MEAN_MOTION":"15.06399195","SITE":"AFETR","TLE_LINE1":"1 45576U 20025AX  21330.79684845  .00001721  00000-0  13440-3 0  9992","RA_OF_ASC_NODE":"257.2066","LAUNCH_DATE":"2020-04-22","FILE":"3224952","RCS_SIZE":"LARGE","MEAN_ELEMENT_THEORY":"SGP4","TIME_SYSTEM":"UTC","APOAPSIS":"548.528","ELEMENT_SET_NO":"999","REF_FRAME":"TEME","ARG_OF_PERICENTER":"68.5189","PERIOD":"95.592","PERIAPSIS":"545.904","NORAD_CAT_ID":"45576","INCLINATION":"53.0539","SEMIMAJOR_AXIS":"6925.351","EPHEMERIS_TYPE":"0","ECCENTRICITY":"0.00018950","CENTER_NAME":"EARTH","MEAN_MOTION_DOT":"0.00001721","OBJECT_TYPE":"PAYLOAD"},{"TLE_LINE2":"2 45577  53.0534 257.1136 0001978  60.3925 299.7261 15.06405198 89793","OBJECT_NAME":"STARLINK-1330","MEAN_MOTION":"15.06405198","DECAY_DATE":null,"OBJECT_ID":"2020-025AY","REV_AT_EPOCH":"8979","TLE_LINE1":"1 45577U 20025AY  21330.81895538  .00001722  00000-0  13445-3 0  9995","SITE":"AFETR","MEAN_ELEMENT_THEORY":"SGP4","RCS_SIZE":"LARGE","LAUNCH_DATE":"2020-04-22","FILE":"3224952","RA_OF_ASC_NODE":"257.1136","GP_ID":"190558457","MEAN_ANOMALY":"299.7261","COUNTRY_CODE":"US","BSTAR":"0.00013445000000","MEAN_MOTION_DDOT":"0.0000000000000","CLASSIFICATION_TYPE":"U","EPOCH":"2021-11-26T19:39:17.744832","SEMIMAJOR_AXIS":"6925.333","ECCENTRICITY":"0.00019780","EPHEMERIS_TYPE":"0","CENTER_NAME":"EARTH","OBJECT_TYPE":"PAYLOAD","MEAN_MOTION_DOT":"0.00001722","ARG_OF_PERICENTER":"60.3925","REF_FRAME":"TEME","ELEMENT_SET_NO":"999","TIME_SYSTEM":"UTC","APOAPSIS":"548.567","PERIAPSIS":"545.828","PERIOD":"95.592","INCLINATION":"53.0534","NORAD_CAT_ID":"45577"},{"CLASSIFICATION_TYPE":"U","EPOCH":"2021-11-26T12:34:41.978208","BSTAR":"0.00014394000000","COUNTRY_CODE":"US","MEAN_MOTION_DDOT":"0.0000000000000","MEAN_ANOMALY":"293.7426","GP_ID":"190528401","RCS_SIZE":"LARGE","MEAN_ELEMENT_THEORY":"SGP4","RA_OF_ASC_NODE":"258.4404","FILE":"3224704","LAUNCH_DATE":"2020-04-22","SITE":"AFETR","TLE_LINE1":"1 45578U 20025AZ  21330.52409697  .00001862  00000-0  14394-3 0  9990","MEAN_MOTION":"15.06390991","REV_AT_EPOCH":"8976","OBJECT_ID":"2020-025AZ","DECAY_DATE":null,"OBJECT_NAME":"STARLINK-1331","TLE_LINE2":"2 45578  53.0555 258.4404 0001880  66.3760 293.7426 15.06390991 89762","NORAD_CAT_ID":"45578","INCLINATION":"53.0555","PERIAPSIS":"545.939","PERIOD":"95.593","REF_FRAME":"TEME","ARG_OF_PERICENTER":"66.3760","APOAPSIS":"548.543","TIME_SYSTEM":"UTC","ELEMENT_SET_NO":"999","MEAN_MOTION_DOT":"0.00001862","OBJECT_TYPE":"PAYLOAD","CENTER_NAME":"EARTH","EPHEMERIS_TYPE":"0","ECCENTRICITY":"0.00018800","SEMIMAJOR_AXIS":"6925.376"},{"MEAN_MOTION":"15.06395771","OBJECT_ID":"2020-025BA","REV_AT_EPOCH":"9034","DECAY_DATE":null,"OBJECT_NAME":"STARLINK-1332","TLE_LINE2":"2 45579  53.0537 217.5736 0005701  67.9074 292.2520 15.06395771 90344","RCS_SIZE":"LARGE","MEAN_ELEMENT_THEORY":"SGP4","RA_OF_ASC_NODE":"217.5736","FILE":"3224952","LAUNCH_DATE":"2020-04-22","TLE_LINE1":"1 45579U 20025BA  21330.71482042  .00001799  00000-0  13972-3 0  9997","SITE":"AFETR","GP_ID":"190557455","MEAN_ANOMALY":"292.2520","CLASSIFICATION_TYPE":"U","EPOCH":"2021-11-26T17:09:20.484288","BSTAR":"0.00013972000000","COUNTRY_CODE":"US","MEAN_MOTION_DDOT":"0.0000000000000","EPHEMERIS_TYPE":"0","ECCENTRICITY":"0.00057010","SEMIMAJOR_AXIS":"6925.362","MEAN_MOTION_DOT":"0.00001799","OBJECT_TYPE":"PAYLOAD","CENTER_NAME":"EARTH","REF_FRAME":"TEME","ARG_OF_PERICENTER":"67.9074","TIME_SYSTEM":"UTC","APOAPSIS":"551.175","ELEMENT_SET_NO":"999","NORAD_CAT_ID":"45579","INCLINATION":"53.0537","PERIAPSIS":"543.278","PERIOD":"95.592"},{"MEAN_ANOMALY":"308.3325","GP_ID":"190557702","EPOCH":"2021-11-26T20:41:39.997536","CLASSIFICATION_TYPE":"U","MEAN_MOTION_DDOT":"0.0000000000000","BSTAR":"-0.00000093770000","COUNTRY_CODE":"US","REV_AT_EPOCH":"8966","OBJECT_ID":"2020-025BB","DECAY_DATE":null,"MEAN_MOTION":"15.06397836","OBJECT_NAME":"STARLINK-1333","TLE_LINE2":"2 45580  53.0546 266.9120 0001922  51.7837 308.3325 15.06397836 89669","RA_OF_ASC_NODE":"266.9120","LAUNCH_DATE":"2020-04-22","FILE":"3224952","RCS_SIZE":"LARGE","MEAN_ELEMENT_THEORY":"SGP4","SITE":"AFETR","TLE_LINE1":"1 45580U 20025BB  21330.86226849 -.00000296  00000-0 -93770-6 0  9996","APOAPSIS":"548.551","TIME_SYSTEM":"UTC","ELEMENT_SET_NO":"999","REF_FRAME":"TEME","ARG_OF_PERICENTER":"51.7837","NORAD_CAT_ID":"45580","INCLINATION":"53.0546","PERIOD":"95.592","PERIAPSIS":"545.889","EPHEMERIS_TYPE":"0","ECCENTRICITY":"0.00019220","SEMIMAJOR_AXIS":"6925.355","MEAN_MOTION_DOT":"-0.00000296","OBJECT_TYPE":"PAYLOAD","CENTER_NAME":"EARTH"}];
